{
"type": "FeatureCollection",
"name": "rute_buccccc",
"crs": { "type": "name", "properties": { "name": "urn:ogc:def:crs:OGC:1.3:CRS84" } },
"features": [
{ "type": "Feature", "properties": { "Pantelimon_Univ": "#ff0000", "fill": "#0800ff", "clasa_risc": 6, "lungime": null }, "geometry": { "type": "MultiLineString", "coordinates": [ [ [ 26.1920732, 44.4406022 ], [ 26.1910992, 44.4411174 ], [ 26.1852551, 44.440356 ], [ 26.1745054, 44.4420007 ], [ 26.1584234, 44.4429448 ], [ 26.1575276, 44.4432189 ], [ 26.157494835559046, 44.443216146913443 ] ] ] } },
{ "type": "Feature", "properties": { "Pantelimon_Univ": "#ff0000", "fill": "#0800ff", "clasa_risc": 6, "lungime": null }, "geometry": { "type": "MultiLineString", "coordinates": [ [ [ 26.157494835559046, 44.443216146913443 ], [ 26.1553521, 44.4430361 ], [ 26.149783941654078, 44.443631306506106 ] ] ] } },
{ "type": "Feature", "properties": { "Pantelimon_Univ": "#ff0000", "fill": "#0800ff", "clasa_risc": 6, "lungime": null }, "geometry": { "type": "MultiLineString", "coordinates": [ [ [ 26.149783941654078, 44.443631306506106 ], [ 26.141520402117489, 44.444514634922797 ] ] ] } },
{ "type": "Feature", "properties": { "Pantelimon_Univ": "#ff0000", "fill": "#0800ff", "clasa_risc": 6, "lungime": null }, "geometry": { "type": "MultiLineString", "coordinates": [ [ [ 26.141520402117489, 44.444514634922797 ], [ 26.1365579, 44.4450451 ], [ 26.1310854, 44.4446694 ], [ 26.129151116250146, 44.443810793723287 ] ] ] } },
{ "type": "Feature", "properties": { "Pantelimon_Univ": "#ff0000", "fill": "#0800ff", "clasa_risc": 6, "lungime": null }, "geometry": { "type": "MultiLineString", "coordinates": [ [ [ 26.129151116250146, 44.443810793723287 ], [ 26.120741820541657, 44.440078004219885 ] ] ] } },
{ "type": "Feature", "properties": { "Pantelimon_Univ": "#ff0000", "fill": "#0800ff", "clasa_risc": 6, "lungime": null }, "geometry": { "type": "MultiLineString", "coordinates": [ [ [ 26.120741820541657, 44.440078004219885 ], [ 26.1170357, 44.4384329 ], [ 26.1163749, 44.4384471 ], [ 26.1157873, 44.4380458 ], [ 26.114097489784402, 44.437754335534507 ] ] ] } },
{ "type": "Feature", "properties": { "Pantelimon_Univ": "#ff0000", "fill": "#0800ff", "clasa_risc": 6, "lungime": null }, "geometry": { "type": "MultiLineString", "coordinates": [ [ [ 26.114097489784402, 44.437754335534507 ], [ 26.106866223667989, 44.436507061080846 ] ] ] } },
{ "type": "Feature", "properties": { "Pantelimon_Univ": "#ff0000", "fill": "#0800ff", "clasa_risc": 6, "lungime": null }, "geometry": { "type": "MultiLineString", "coordinates": [ [ [ 26.106866223667989, 44.436507061080846 ], [ 26.1061974, 44.4363917 ] ] ] } },
{ "type": "Feature", "properties": { "Pantelimon_Univ": null, "fill": "#0800ff", "clasa_risc": 6, "lungime": null }, "geometry": { "type": "MultiLineString", "coordinates": [ [ [ 26.1851469, 44.4403507 ], [ 26.1705555, 44.4373434 ], [ 26.167976701470558, 44.43788182925725 ], [ 26.168145961460109, 44.437052405423323 ], [ 26.1563151, 44.4340853 ], [ 26.1487436, 44.4331186 ], [ 26.1388154, 44.4322592 ], [ 26.1363585, 44.4377372 ], [ 26.1332998, 44.4413531 ], [ 26.129151116250149, 44.443810793723287 ] ] ] } },
{ "type": "Feature", "properties": { "Pantelimon_Univ": null, "fill": "#0800ff", "clasa_risc": 6, "lungime": null }, "geometry": { "type": "MultiLineString", "coordinates": [ [ [ 26.129151116250149, 44.443810793723287 ], [ 26.12884, 44.4439951 ], [ 26.1266337, 44.4462503 ], [ 26.1258315, 44.4486845 ], [ 26.125573382106658, 44.448912626702217 ] ] ] } },
{ "type": "Feature", "properties": { "Pantelimon_Univ": null, "fill": "#0800ff", "clasa_risc": 6, "lungime": null }, "geometry": { "type": "MultiLineString", "coordinates": [ [ [ 26.125573382106658, 44.448912626702217 ], [ 26.124225870669644, 44.450103568315569 ] ] ] } },
{ "type": "Feature", "properties": { "Pantelimon_Univ": null, "fill": "#0800ff", "clasa_risc": 6, "lungime": null }, "geometry": { "type": "MultiLineString", "coordinates": [ [ [ 26.124225870669644, 44.450103568315569 ], [ 26.1237255, 44.4505458 ], [ 26.1217399, 44.451584 ], [ 26.1165251, 44.4526578 ], [ 26.111556210757705, 44.452861444944944 ] ] ] } },
{ "type": "Feature", "properties": { "Pantelimon_Univ": null, "fill": "#0800ff", "clasa_risc": 6, "lungime": null }, "geometry": { "type": "MultiLineString", "coordinates": [ [ [ 26.111556210757705, 44.452861444944944 ], [ 26.109380812638882, 44.452950601456301 ] ] ] } },
{ "type": "Feature", "properties": { "Pantelimon_Univ": null, "fill": "#0800ff", "clasa_risc": 6, "lungime": null }, "geometry": { "type": "MultiLineString", "coordinates": [ [ [ 26.109380812638882, 44.452950601456301 ], [ 26.1060454, 44.4530873 ], [ 26.104837656519965, 44.453089578672639 ] ] ] } },
{ "type": "Feature", "properties": { "Pantelimon_Univ": null, "fill": "#0800ff", "clasa_risc": 6, "lungime": null }, "geometry": { "type": "MultiLineString", "coordinates": [ [ [ 26.104837656519965, 44.453089578672639 ], [ 26.10340492763229, 44.453092281829527 ] ] ] } },
{ "type": "Feature", "properties": { "Pantelimon_Univ": null, "fill": "#0800ff", "clasa_risc": 6, "lungime": null }, "geometry": { "type": "MultiLineString", "coordinates": [ [ [ 26.10340492763229, 44.453092281829527 ], [ 26.1009042, 44.453097 ] ] ] } },
{ "type": "Feature", "properties": { "Pantelimon_Univ": null, "fill": "#0800ff", "clasa_risc": 1, "lungime": null }, "geometry": { "type": "MultiLineString", "coordinates": [ [ [ 26.1259738, 44.4860114 ], [ 26.1255215, 44.4787513 ], [ 26.1250693, 44.4759008 ], [ 26.1238633, 44.4742873 ], [ 26.1239299, 44.4733331 ], [ 26.1246253, 44.4713744 ], [ 26.1268212, 44.4684492 ], [ 26.12748, 44.4673784 ], [ 26.1272152, 44.4655439 ] ] ] } },
{ "type": "Feature", "properties": { "Pantelimon_Univ": null, "fill": "#0800ff", "clasa_risc": 6, "lungime": null }, "geometry": { "type": "MultiLineString", "coordinates": [ [ [ 26.1254984, 44.4824846 ], [ 26.121044, 44.4825396 ], [ 26.1162617, 44.4810589 ], [ 26.113468516742177, 44.480116845084041 ] ] ] } },
{ "type": "Feature", "properties": { "Pantelimon_Univ": null, "fill": "#0800ff", "clasa_risc": 6, "lungime": null }, "geometry": { "type": "MultiLineString", "coordinates": [ [ [ 26.113468516742177, 44.480116845084041 ], [ 26.1112989, 44.4793851 ], [ 26.1059752, 44.478355 ], [ 26.105919050462656, 44.478394416284686 ] ] ] } },
{ "type": "Feature", "properties": { "Pantelimon_Univ": null, "fill": "#0800ff", "clasa_risc": 5, "lungime": null }, "geometry": { "type": "MultiLineString", "coordinates": [ [ [ 26.105919050462656, 44.478394416284686 ], [ 26.103178, 44.4803186 ], [ 26.101345, 44.4797644 ] ] ] } },
{ "type": "Feature", "properties": { "Pantelimon_Univ": null, "fill": "#0800ff", "clasa_risc": 1, "lungime": null }, "geometry": { "type": "MultiLineString", "coordinates": [ [ [ 26.125527409565994, 44.478834860907341 ], [ 26.1252546, 44.4788108 ], [ 26.1164432, 44.4778924 ], [ 26.1129285, 44.477292 ], [ 26.1096119, 44.476091 ], [ 26.1065427, 44.4756672 ], [ 26.1035726, 44.4757731 ] ] ] } },
{ "type": "Feature", "properties": { "Pantelimon_Univ": null, "fill": "#0800ff", "clasa_risc": 6, "lungime": null }, "geometry": { "type": "MultiLineString", "coordinates": [ [ [ 26.1325069, 44.4625896 ], [ 26.12818, 44.4652806 ], [ 26.12796577322688, 44.465670391929052 ], [ 26.12796577322688, 44.465670391929052 ], [ 26.127847206572834, 44.465787702432472 ], [ 26.127847206572834, 44.465787702432472 ], [ 26.127244941864223, 44.46574923999831 ] ] ] } },
{ "type": "Feature", "properties": { "Pantelimon_Univ": null, "fill": "#4effcd", "clasa_risc": 5, "lungime": null }, "geometry": { "type": "MultiLineString", "coordinates": [ [ [ 26.1573628, 44.4433021 ], [ 26.1577044, 44.4444149 ], [ 26.1571396, 44.4447605 ], [ 26.1569782, 44.4457975 ], [ 26.1542345, 44.4479291 ], [ 26.1517329, 44.452768 ], [ 26.146649, 44.4555329 ], [ 26.1400318, 44.4565697 ], [ 26.132895203046843, 44.462217090719427 ] ] ] } },
{ "type": "Feature", "properties": { "Pantelimon_Univ": null, "fill": "#4effcd", "clasa_risc": 6, "lungime": null }, "geometry": { "type": "MultiLineString", "coordinates": [ [ [ 26.132895203046843, 44.462217090719427 ], [ 26.1325069, 44.4625896 ] ] ] } },
{ "type": "Feature", "properties": { "Pantelimon_Univ": null, "fill": "#ffe100", "clasa_risc": 6, "lungime": null }, "geometry": { "type": "MultiLineString", "coordinates": [ [ [ 26.159912412913421, 44.434981515175465 ], [ 26.1573708, 44.4416052 ], [ 26.1579065, 44.4428544 ], [ 26.157494835559042, 44.443216146913443 ] ] ] } },
{ "type": "Feature", "properties": { "Pantelimon_Univ": null, "fill": "#ffe100", "clasa_risc": 6, "lungime": null }, "geometry": { "type": "MultiLineString", "coordinates": [ [ [ 26.157494835559042, 44.443216146913443 ], [ 26.1574422, 44.4432624 ], [ 26.1573628, 44.4433021 ] ] ] } },
{ "type": "Feature", "properties": { "Pantelimon_Univ": null, "fill": "#ffe100", "clasa_risc": 6, "lungime": null }, "geometry": { "type": "MultiLineString", "coordinates": [ [ [ 26.133252889262128, 44.441381650322221 ], [ 26.120376950209952, 44.439020620469897 ] ] ] } },
{ "type": "Feature", "properties": { "Pantelimon_Univ": null, "fill": "#ffe100", "clasa_risc": 6, "lungime": null }, "geometry": { "type": "MultiLineString", "coordinates": [ [ [ 26.120376950209952, 44.439020620469897 ], [ 26.1169778, 44.4383951 ] ] ] } },
{ "type": "Feature", "properties": { "Pantelimon_Univ": null, "fill": "#0800ff", "clasa_risc": 6, "lungime": null }, "geometry": { "type": "MultiLineString", "coordinates": [ [ [ 26.124225870669648, 44.450103568315569 ], [ 26.1241143, 44.4496932 ], [ 26.1235387, 44.4482645 ], [ 26.120661, 44.4452319 ], [ 26.119315657022533, 44.443710021400101 ] ] ] } },
{ "type": "Feature", "properties": { "Pantelimon_Univ": null, "fill": "#0800ff", "clasa_risc": 6, "lungime": null }, "geometry": { "type": "MultiLineString", "coordinates": [ [ [ 26.119315657022533, 44.443710021400101 ], [ 26.119245283775342, 44.443630413790224 ] ] ] } },
{ "type": "Feature", "properties": { "Pantelimon_Univ": null, "fill": "#0800ff", "clasa_risc": 6, "lungime": null }, "geometry": { "type": "MultiLineString", "coordinates": [ [ [ 26.119245283775342, 44.443630413790224 ], [ 26.1185508, 44.4428448 ], [ 26.117187961541191, 44.441332285641089 ] ] ] } },
{ "type": "Feature", "properties": { "Pantelimon_Univ": null, "fill": "#0800ff", "clasa_risc": 6, "lungime": null }, "geometry": { "type": "MultiLineString", "coordinates": [ [ [ 26.117187961541191, 44.441332285641089 ], [ 26.11664209691746, 44.440726475750964 ], [ 26.1157828, 44.4397728 ], [ 26.114097489784402, 44.437754335534507 ] ] ] } },
{ "type": "Feature", "properties": { "Pantelimon_Univ": null, "fill": "#0800ff", "clasa_risc": 6, "lungime": null }, "geometry": { "type": "MultiLineString", "coordinates": [ [ [ 26.114097489784402, 44.437754335534507 ], [ 26.114097489784402, 44.437754335534507 ] ] ] } },
{ "type": "Feature", "properties": { "Pantelimon_Univ": null, "fill": "#0800ff", "clasa_risc": 3, "lungime": null }, "geometry": { "type": "MultiLineString", "coordinates": [ [ [ 26.1140014, 44.4377377 ], [ 26.1140288, 44.4366419 ], [ 26.1128777, 44.4352329 ], [ 26.1120007, 44.4338826 ] ] ] } },
{ "type": "Feature", "properties": { "Pantelimon_Univ": null, "fill": "#ffe100", "clasa_risc": 1, "lungime": null }, "geometry": { "type": "MultiLineString", "coordinates": [ [ [ 26.148168924769561, 44.433066968796425 ], [ 26.1479371, 44.4361496 ], [ 26.1481893, 44.4363426 ], [ 26.1481173, 44.4364583 ], [ 26.1505127, 44.4377443 ], [ 26.1506928, 44.4377443 ], [ 26.1509449, 44.4381815 ], [ 26.1513412, 44.4384902 ], [ 26.1507468, 44.4393775 ], [ 26.1509449, 44.4395704 ], [ 26.1506567, 44.4397761 ], [ 26.1497808, 44.4436217 ] ] ] } },
{ "type": "Feature", "properties": { "Pantelimon_Univ": null, "fill": "#ffe100", "clasa_risc": 2, "lungime": null }, "geometry": { "type": "MultiLineString", "coordinates": [ [ [ 26.1480172, 44.4364701 ], [ 26.1476543, 44.4364936 ], [ 26.1473904, 44.4363523 ], [ 26.1458226, 44.436355 ], [ 26.144146, 44.4395102 ], [ 26.1463215, 44.4400717 ], [ 26.146225173326563, 44.440222904183166 ] ] ] } },
{ "type": "Feature", "properties": { "Pantelimon_Univ": null, "fill": "#ffe100", "clasa_risc": 2, "lungime": null }, "geometry": { "type": "MultiLineString", "coordinates": [ [ [ 26.146225173326563, 44.440222904183166 ], [ 26.1447907, 44.4424746 ], [ 26.1447211, 44.4426096 ], [ 26.1436368, 44.4425101 ], [ 26.1435672, 44.4428794 ], [ 26.1439153, 44.4442501 ] ] ] } },
{ "type": "Feature", "properties": { "Pantelimon_Univ": null, "fill": "#ffe100", "clasa_risc": 1, "lungime": null }, "geometry": { "type": "MultiLineString", "coordinates": [ [ [ 26.1480031, 44.4364819 ], [ 26.1482219, 44.4365814 ], [ 26.1481722, 44.4367874 ], [ 26.147824, 44.4375403 ], [ 26.147247, 44.4386128 ], [ 26.1464114, 44.4402299 ], [ 26.146225173326563, 44.440222904183166 ] ] ] } },
{ "type": "Feature", "properties": { "Pantelimon_Univ": null, "fill": "#4effcd", "clasa_risc": 6, "lungime": null }, "geometry": { "type": "MultiLineString", "coordinates": [ [ [ 26.167976701470558, 44.43788182925725 ], [ 26.1679715, 44.4379412 ], [ 26.1678095, 44.4388207 ], [ 26.1669423, 44.4404987 ], [ 26.1664396, 44.441396 ], [ 26.1656978, 44.4425149 ] ] ] } },
{ "type": "Feature", "properties": { "Pantelimon_Univ": null, "fill": "#4effcd", "clasa_risc": 5, "lungime": null }, "geometry": { "type": "MultiLineString", "coordinates": [ [ [ 26.165544118457412, 44.442526796707988 ], [ 26.1655463, 44.4425381 ], [ 26.1655463, 44.4425381 ], [ 26.1659574, 44.44433 ], [ 26.1662363, 44.4462313 ], [ 26.1664629, 44.4476001 ], [ 26.1654868, 44.4476623 ], [ 26.1652777, 44.4477618 ], [ 26.1640053, 44.4477494 ], [ 26.163587, 44.4477494 ], [ 26.1625064, 44.4490683 ], [ 26.1624715, 44.4497526 ], [ 26.1617743, 44.4516314 ], [ 26.1614955, 44.4522535 ], [ 26.1585324, 44.4535221 ], [ 26.1555171, 44.4551519 ], [ 26.1531467, 44.4544552 ], [ 26.1525018, 44.4542686 ], [ 26.1507415, 44.4547413 ], [ 26.1500966, 44.4554132 ], [ 26.1496085, 44.4557615 ], [ 26.1491379, 44.4567443 ], [ 26.1485628, 44.4575654 ], [ 26.1482142, 44.457976 ], [ 26.1483352, 44.4593561 ], [ 26.1487883, 44.4595925 ], [ 26.1489626, 44.4601399 ], [ 26.1491021, 44.4606126 ], [ 26.1474637, 44.4613092 ], [ 26.1459125, 44.460936 ], [ 26.145407, 44.4602021 ], [ 26.1446924, 44.4597791 ], [ 26.1432457, 44.4597044 ], [ 26.1423568, 44.4600403 ], [ 26.1413111, 44.4610729 ], [ 26.1409799, 44.46167 ] ] ] } },
{ "type": "Feature", "properties": { "Pantelimon_Univ": null, "fill": "#4effcd", "clasa_risc": 2, "lungime": null }, "geometry": { "type": "MultiLineString", "coordinates": [ [ [ 26.1408441, 44.461677 ], [ 26.1367712, 44.4656541 ], [ 26.136672750471519, 44.465726496727051 ] ] ] } },
{ "type": "Feature", "properties": { "Pantelimon_Univ": null, "fill": "#4effcd", "clasa_risc": 2, "lungime": null }, "geometry": { "type": "MultiLineString", "coordinates": [ [ [ 26.136672750471519, 44.465726496727051 ], [ 26.1359066, 44.4662899 ], [ 26.1353301, 44.4662525 ], [ 26.1349371, 44.4668508 ], [ 26.1351467, 44.4679727 ], [ 26.1364306, 44.4694244 ], [ 26.1370332, 44.4704901 ], [ 26.1369808, 44.4720046 ], [ 26.1357756, 44.4731077 ], [ 26.135304, 44.4732386 ], [ 26.1326315, 44.4712567 ], [ 26.1313904, 44.4717799 ], [ 26.1322838, 44.4729999 ], [ 26.1325987, 44.4742838 ], [ 26.1321939, 44.4748133 ], [ 26.1315417, 44.4750861 ], [ 26.1305522, 44.4753268 ], [ 26.1294502, 44.4754873 ], [ 26.1285281, 44.4754552 ], [ 26.1272013, 44.4749417 ], [ 26.1263017, 44.4744924 ], [ 26.1251997, 44.4741875 ], [ 26.1238954, 44.4741072 ] ] ] } },
{ "type": "Feature", "properties": { "Pantelimon_Univ": null, "fill": "#4effcd", "clasa_risc": 3, "lungime": null }, "geometry": { "type": "MultiLineString", "coordinates": [ [ [ 26.150692, 44.4547791 ], [ 26.1506172, 44.4543199 ], [ 26.1501385, 44.4543306 ], [ 26.149944, 44.4541383 ], [ 26.1496448, 44.4539141 ] ] ] } },
{ "type": "Feature", "properties": { "Pantelimon_Univ": null, "fill": "#ffe100", "clasa_risc": null, "lungime": null }, "geometry": { "type": "MultiLineString", "coordinates": [ [ [ 26.164205106785861, 44.478412285513237 ], [ 26.164205106785861, 44.478412285513237 ] ] ] } },
{ "type": "Feature", "properties": { "Pantelimon_Univ": null, "fill": "#ffe100", "clasa_risc": 3, "lungime": null }, "geometry": { "type": "MultiLineString", "coordinates": [ [ [ 26.164205106785861, 44.478412285513237 ], [ 26.1710306, 44.4719185 ], [ 26.1721162, 44.4727747 ], [ 26.16567068952293, 44.479164603560797 ], [ 26.16567068952293, 44.479164603560797 ] ] ] } },
{ "type": "Feature", "properties": { "Pantelimon_Univ": null, "fill": "#ffe100", "clasa_risc": null, "lungime": null }, "geometry": { "type": "MultiLineString", "coordinates": [ [ [ 26.16567068952293, 44.479164603560797 ], [ 26.16567068952293, 44.479164603560797 ] ] ] } },
{ "type": "Feature", "properties": { "Pantelimon_Univ": null, "fill": "#ffe100", "clasa_risc": 6, "lungime": null }, "geometry": { "type": "MultiLineString", "coordinates": [ [ [ 26.143965740007967, 44.469159765719347 ], [ 26.1466336, 44.4718757 ], [ 26.1557181, 44.4764012 ], [ 26.1572608, 44.4749335 ], [ 26.157281378439507, 44.474921812794094 ], [ 26.157282894206393, 44.474921362133124 ] ] ] } },
{ "type": "Feature", "properties": { "Pantelimon_Univ": null, "fill": "#ffe100", "clasa_risc": 2, "lungime": null }, "geometry": { "type": "MultiLineString", "coordinates": [ [ [ 26.151935773894923, 44.474517057753069 ], [ 26.1518255, 44.4746376 ], [ 26.1516797, 44.47518 ], [ 26.1511196, 44.4750373 ], [ 26.1469632, 44.4812072 ], [ 26.1437769, 44.480123 ], [ 26.1479436, 44.473897 ], [ 26.1471593, 44.4734773 ], [ 26.1480417, 44.4726378 ], [ 26.148088757543082, 44.472602605280976 ] ] ] } },
{ "type": "Feature", "properties": { "Pantelimon_Univ": null, "fill": "#4effcd", "clasa_risc": 3, "lungime": null }, "geometry": { "type": "MultiLineString", "coordinates": [ [ [ 26.1324383, 44.4318397 ], [ 26.1323378, 44.4339558 ], [ 26.1328903, 44.4346372 ] ] ] } },
{ "type": "Feature", "properties": { "Pantelimon_Univ": null, "fill": "#4effcd", "clasa_risc": 3, "lungime": null }, "geometry": { "type": "MultiLineString", "coordinates": [ [ [ 26.1328903, 44.4346372 ], [ 26.1328903, 44.4346372 ], [ 26.13270864862162, 44.434724839165867 ] ] ] } },
{ "type": "Feature", "properties": { "Pantelimon_Univ": null, "fill": "#4effcd", "clasa_risc": 3, "lungime": null }, "geometry": { "type": "MultiLineString", "coordinates": [ [ [ 26.13270864862162, 44.434724839165867 ], [ 26.1310319, 44.4355338 ], [ 26.1281023, 44.4354858 ], [ 26.1261283, 44.4354084 ], [ 26.1251522, 44.4352845 ], [ 26.1233734, 44.4343087 ], [ 26.121638, 44.433782 ], [ 26.1211095, 44.4336347 ] ] ] } },
{ "type": "Feature", "properties": { "Pantelimon_Univ": null, "fill": "#0800ff", "clasa_risc": 3, "lungime": null }, "geometry": { "type": "MultiLineString", "coordinates": [ [ [ 26.1211095, 44.4336347 ], [ 26.1207886, 44.4337188 ], [ 26.1200456, 44.4338462 ], [ 26.1191243, 44.4338462 ], [ 26.118277370244275, 44.435247857038064 ], [ 26.1188865, 44.4353953 ], [ 26.1197484, 44.4371991 ], [ 26.120376950209952, 44.439020620469897 ] ] ] } },
{ "type": "Feature", "properties": { "Pantelimon_Univ": null, "fill": "#0800ff", "clasa_risc": 3, "lungime": null }, "geometry": { "type": "MultiLineString", "coordinates": [ [ [ 26.120376950209952, 44.439020620469897 ], [ 26.120741820541657, 44.440078004219885 ] ] ] } },
{ "type": "Feature", "properties": { "Pantelimon_Univ": null, "fill": "#0800ff", "clasa_risc": 3, "lungime": null }, "geometry": { "type": "MultiLineString", "coordinates": [ [ [ 26.120741820541657, 44.440078004219885 ], [ 26.1207739, 44.4401266 ] ] ] } },
{ "type": "Feature", "properties": { "Pantelimon_Univ": null, "fill": "#ffe100", "clasa_risc": 4, "lungime": null }, "geometry": { "type": "MultiLineString", "coordinates": [ [ [ 26.1207739, 44.4401266 ], [ 26.1210201, 44.4402898 ], [ 26.1207387, 44.4407418 ], [ 26.1200698, 44.4432142 ], [ 26.1194895, 44.443616 ], [ 26.119315657022533, 44.443710021400101 ] ] ] } },
{ "type": "Feature", "properties": { "Pantelimon_Univ": null, "fill": "#ffe100", "clasa_risc": 3, "lungime": null }, "geometry": { "type": "MultiLineString", "coordinates": [ [ [ 26.119315657022533, 44.443710021400101 ], [ 26.1183289, 44.4442437 ], [ 26.1161659, 44.445926 ], [ 26.1134758, 44.446742 ], [ 26.11136299837796, 44.446844842632146 ] ] ] } },
{ "type": "Feature", "properties": { "Pantelimon_Univ": null, "fill": "#ffe100", "clasa_risc": 3, "lungime": null }, "geometry": { "type": "MultiLineString", "coordinates": [ [ [ 26.11136299837796, 44.446844842632146 ], [ 26.1108626, 44.4468692 ], [ 26.110291674155544, 44.446958151309936 ] ] ] } },
{ "type": "Feature", "properties": { "Pantelimon_Univ": null, "fill": "#ffe100", "clasa_risc": 3, "lungime": null }, "geometry": { "type": "MultiLineString", "coordinates": [ [ [ 26.110291674155544, 44.446958151309936 ], [ 26.1091123, 44.4471419 ], [ 26.1076483, 44.4477326 ], [ 26.1064071, 44.4480734 ], [ 26.105754768018315, 44.448010834626089 ] ] ] } },
{ "type": "Feature", "properties": { "Pantelimon_Univ": null, "fill": "#ffe100", "clasa_risc": 3, "lungime": null }, "geometry": { "type": "MultiLineString", "coordinates": [ [ [ 26.105754768018315, 44.448010834626089 ], [ 26.1042749, 44.4478689 ], [ 26.1031686, 44.4476539 ] ] ] } },
{ "type": "Feature", "properties": { "Pantelimon_Univ": null, "fill": "#ffe100", "clasa_risc": 5, "lungime": null }, "geometry": { "type": "MultiLineString", "coordinates": [ [ [ 26.1200698, 44.4432142 ], [ 26.119245283775342, 44.443630413790224 ] ] ] } },
{ "type": "Feature", "properties": { "Pantelimon_Univ": null, "fill": "#ffe100", "clasa_risc": 5, "lungime": null }, "geometry": { "type": "MultiLineString", "coordinates": [ [ [ 26.119245283775342, 44.443630413790224 ], [ 26.1192359, 44.4436352 ], [ 26.1185655, 44.4439355 ], [ 26.1173955, 44.4441701 ], [ 26.1156662, 44.4445803 ], [ 26.1132605, 44.4451997 ], [ 26.111051551570469, 44.445588082898574 ] ] ] } },
{ "type": "Feature", "properties": { "Pantelimon_Univ": null, "fill": "#ffe100", "clasa_risc": 5, "lungime": null }, "geometry": { "type": "MultiLineString", "coordinates": [ [ [ 26.111051551570469, 44.445588082898574 ], [ 26.1105919, 44.4456689 ], [ 26.1097204, 44.4458579 ], [ 26.109580911252955, 44.445881333828019 ] ] ] } },
{ "type": "Feature", "properties": { "Pantelimon_Univ": null, "fill": "#ffe100", "clasa_risc": 5, "lungime": null }, "geometry": { "type": "MultiLineString", "coordinates": [ [ [ 26.109580911252955, 44.445881333828019 ], [ 26.1085311, 44.4460577 ], [ 26.1074757, 44.4461928 ], [ 26.1061668, 44.4463008 ], [ 26.106072938850165, 44.446309821530356 ] ] ] } },
{ "type": "Feature", "properties": { "Pantelimon_Univ": null, "fill": "#ffe100", "clasa_risc": 5, "lungime": null }, "geometry": { "type": "MultiLineString", "coordinates": [ [ [ 26.106072938850165, 44.446309821530356 ], [ 26.1049568, 44.4464171 ], [ 26.1033763, 44.4465433 ] ] ] } },
{ "type": "Feature", "properties": { "Pantelimon_Univ": null, "fill": "#ffe100", "clasa_risc": 3, "lungime": null }, "geometry": { "type": "MultiLineString", "coordinates": [ [ [ 26.137855688994012, 44.434412779985415 ], [ 26.1377105, 44.4343286 ], [ 26.1363379, 44.4335935 ], [ 26.1328903, 44.4346372 ] ] ] } },
{ "type": "Feature", "properties": { "Pantelimon_Univ": null, "fill": "#ffe100", "clasa_risc": 3, "lungime": null }, "geometry": { "type": "MultiLineString", "coordinates": [ [ [ 26.1328903, 44.4346372 ], [ 26.13270864862162, 44.434724839165867 ], [ 26.13270864862162, 44.434724839165867 ] ] ] } },
{ "type": "Feature", "properties": { "Pantelimon_Univ": null, "fill": "#ffe100", "clasa_risc": 5, "lungime": null }, "geometry": { "type": "MultiLineString", "coordinates": [ [ [ 26.13270864862162, 44.434724839165867 ], [ 26.1326124, 44.4371287 ], [ 26.1320732, 44.4382137 ], [ 26.1304065, 44.4396487 ], [ 26.128803945013612, 44.440573596251049 ] ] ] } },
{ "type": "Feature", "properties": { "Pantelimon_Univ": null, "fill": "#ffe100", "clasa_risc": 3, "lungime": null }, "geometry": { "type": "MultiLineString", "coordinates": [ [ [ 26.128458013324995, 44.440507219884203 ], [ 26.1278575, 44.4431486 ] ] ] } },
{ "type": "Feature", "properties": { "Pantelimon_Univ": null, "fill": "#ffe100", "clasa_risc": 3, "lungime": null }, "geometry": { "type": "MultiLineString", "coordinates": [ [ [ 26.118277370244275, 44.435247857038064 ], [ 26.117559133978663, 44.434678970274938 ], [ 26.117075259366374, 44.434330801250439 ], [ 26.116569052079669, 44.434120835721544 ] ] ] } },
{ "type": "Feature", "properties": { "Pantelimon_Univ": null, "fill": "#ffe100", "clasa_risc": 5, "lungime": null }, "geometry": { "type": "MultiLineString", "coordinates": [ [ [ 26.1168253, 44.4779452 ], [ 26.1152661, 44.4807191 ] ] ] } },
{ "type": "Feature", "properties": { "Pantelimon_Univ": null, "fill": "#ffe100", "clasa_risc": 5, "lungime": null }, "geometry": { "type": "MultiLineString", "coordinates": [ [ [ 26.1148525, 44.4776853 ], [ 26.113468516742177, 44.480116845084041 ] ] ] } },
{ "type": "Feature", "properties": { "Pantelimon_Univ": null, "fill": "#ffe100", "clasa_risc": 5, "lungime": null }, "geometry": { "type": "MultiLineString", "coordinates": [ [ [ 26.113468516742177, 44.480116845084041 ], [ 26.1134612, 44.4801297 ], [ 26.1136407, 44.4802044 ], [ 26.112773, 44.4814426 ], [ 26.1099156, 44.4840256 ] ] ] } },
{ "type": "Feature", "properties": { "Pantelimon_Univ": null, "fill": "#0800ff", "clasa_risc": 5, "lungime": null }, "geometry": { "type": "MultiLineString", "coordinates": [ [ [ 26.11664209691746, 44.440726475750964 ], [ 26.1126456, 44.4419749 ], [ 26.112317, 44.4417599 ], [ 26.1096342, 44.4423267 ], [ 26.1068692, 44.4422094 ], [ 26.104447470279045, 44.441411423871905 ] ] ] } },
{ "type": "Feature", "properties": { "Pantelimon_Univ": null, "fill": "#0800ff", "clasa_risc": 5, "lungime": null }, "geometry": { "type": "MultiLineString", "coordinates": [ [ [ 26.104447470279045, 44.441411423871905 ], [ 26.1043779, 44.4413885 ], [ 26.1021604, 44.4413885 ], [ 26.0999156, 44.4408021 ] ] ] } },
{ "type": "Feature", "properties": { "Pantelimon_Univ": null, "fill": "#0800ff", "clasa_risc": 5, "lungime": null }, "geometry": { "type": "MultiLineString", "coordinates": [ [ [ 26.1037483, 44.4442812 ], [ 26.1049528, 44.4427958 ], [ 26.1043779, 44.4418771 ], [ 26.104447470279045, 44.441411423871905 ] ] ] } },
{ "type": "Feature", "properties": { "Pantelimon_Univ": null, "fill": "#0800ff", "clasa_risc": 4, "lungime": null }, "geometry": { "type": "MultiLineString", "coordinates": [ [ [ 26.104447470279045, 44.441411423871905 ], [ 26.1045969, 44.4404112 ], [ 26.1051445, 44.4388475 ], [ 26.1057467, 44.4377138 ], [ 26.1062943, 44.4374988 ], [ 26.106866223667993, 44.436507061080846 ] ] ] } },
{ "type": "Feature", "properties": { "Pantelimon_Univ": null, "fill": "#ffe100", "clasa_risc": 5, "lungime": null }, "geometry": { "type": "MultiLineString", "coordinates": [ [ [ 26.107459165926901, 44.47577589163356 ], [ 26.105919050462656, 44.478394416284686 ] ] ] } },
{ "type": "Feature", "properties": { "Pantelimon_Univ": null, "fill": "#ffe100", "clasa_risc": 4, "lungime": null }, "geometry": { "type": "MultiLineString", "coordinates": [ [ [ 26.1065815, 44.4603818 ], [ 26.1047291, 44.4607109 ], [ 26.1048119, 44.4612134 ], [ 26.1034867, 44.4614794 ], [ 26.103321, 44.4607996 ], [ 26.1011882, 44.4610361 ] ] ] } },
{ "type": "Feature", "properties": { "Pantelimon_Univ": null, "fill": "#ffe100", "clasa_risc": 2, "lungime": null }, "geometry": { "type": "MultiLineString", "coordinates": [ [ [ 26.1047003, 44.4612599 ], [ 26.105314743885287, 44.463179190365473 ] ] ] } },
{ "type": "Feature", "properties": { "Pantelimon_Univ": null, "fill": "#ffe100", "clasa_risc": 2, "lungime": null }, "geometry": { "type": "MultiLineString", "coordinates": [ [ [ 26.105314743885287, 44.463179190365473 ], [ 26.1060404411791, 44.46544599431229 ] ] ] } },
{ "type": "Feature", "properties": { "Pantelimon_Univ": null, "fill": "#ffe100", "clasa_risc": 4, "lungime": null }, "geometry": { "type": "MultiLineString", "coordinates": [ [ [ 26.1060404411791, 44.46544599431229 ], [ 26.1070858, 44.4687113 ], [ 26.1076389, 44.4690567 ], [ 26.1096441, 44.4686866 ], [ 26.110020550357149, 44.470251689633379 ] ] ] } },
{ "type": "Feature", "properties": { "Pantelimon_Univ": null, "fill": "#ffe100", "clasa_risc": 6, "lungime": null }, "geometry": { "type": "MultiLineString", "coordinates": [ [ [ 26.110020550357149, 44.470251689633379 ], [ 26.1100238, 44.4702652 ], [ 26.107016, 44.4721155 ], [ 26.1054603, 44.4721401 ] ] ] } },
{ "type": "Feature", "properties": { "Pantelimon_Univ": null, "fill": "#4effcd", "clasa_risc": 6, "lungime": null }, "geometry": { "type": "MultiLineString", "coordinates": [ [ [ 26.1095198, 44.4628634 ], [ 26.1156045, 44.4660216 ], [ 26.110020550357149, 44.470251689633379 ] ] ] } },
{ "type": "Feature", "properties": { "Pantelimon_Univ": null, "fill": "#ffe100", "clasa_risc": 4, "lungime": null }, "geometry": { "type": "MultiLineString", "coordinates": [ [ [ 26.1015341, 44.463701 ], [ 26.105314743885287, 44.463179190365473 ] ] ] } },
{ "type": "Feature", "properties": { "Pantelimon_Univ": null, "fill": "#ffe100", "clasa_risc": 5, "lungime": null }, "geometry": { "type": "MultiLineString", "coordinates": [ [ [ 26.105314743885287, 44.463179190365473 ], [ 26.1088634, 44.4626894 ], [ 26.1094857, 44.4628128 ], [ 26.111834038016397, 44.459113829457088 ] ] ] } },
{ "type": "Feature", "properties": { "Pantelimon_Univ": null, "fill": "#ffe100", "clasa_risc": 4, "lungime": null }, "geometry": { "type": "MultiLineString", "coordinates": [ [ [ 26.1020766, 44.4659764 ], [ 26.106040441179104, 44.46544599431229 ] ] ] } },
{ "type": "Feature", "properties": { "Pantelimon_Univ": null, "fill": "#ffe100", "clasa_risc": 4, "lungime": null }, "geometry": { "type": "MultiLineString", "coordinates": [ [ [ 26.106040441179104, 44.46544599431229 ], [ 26.1081613, 44.4651622 ] ] ] } },
{ "type": "Feature", "properties": { "Pantelimon_Univ": null, "fill": "#ffe100", "clasa_risc": 3, "lungime": null }, "geometry": { "type": "MultiLineString", "coordinates": [ [ [ 26.1095332, 44.4530664 ], [ 26.1094467, 44.4561683 ], [ 26.1099112, 44.4562778 ], [ 26.1100117, 44.4565727 ], [ 26.1098442, 44.4568835 ], [ 26.1093305, 44.4569393 ], [ 26.1091072, 44.4568596 ], [ 26.1069297, 44.4572661 ], [ 26.10685597724488, 44.457282649594852 ] ] ] } },
{ "type": "Feature", "properties": { "Pantelimon_Univ": null, "fill": "#ffe100", "clasa_risc": 6, "lungime": null }, "geometry": { "type": "MultiLineString", "coordinates": [ [ [ 26.1272152, 44.4655439 ], [ 26.1259088, 44.4643397 ], [ 26.1232008, 44.4634365 ], [ 26.1207674, 44.4624558 ], [ 26.1171204, 44.4611543 ], [ 26.11417762708081, 44.460021462406786 ] ] ] } },
{ "type": "Feature", "properties": { "Pantelimon_Univ": null, "fill": "#ffe100", "clasa_risc": 6, "lungime": null }, "geometry": { "type": "MultiLineString", "coordinates": [ [ [ 26.11417762708081, 44.460021462406786 ], [ 26.1114717, 44.4589798 ], [ 26.1060221, 44.4569756 ], [ 26.104837656519965, 44.453089578672639 ] ] ] } },
{ "type": "Feature", "properties": { "Pantelimon_Univ": null, "fill": "#ffe100", "clasa_risc": 6, "lungime": null }, "geometry": { "type": "MultiLineString", "coordinates": [ [ [ 26.10340492763229, 44.453092281829527 ], [ 26.10340492763229, 44.453092281829527 ] ] ] } },
{ "type": "Feature", "properties": { "Pantelimon_Univ": null, "fill": "#ffe100", "clasa_risc": 3, "lungime": null }, "geometry": { "type": "MultiLineString", "coordinates": [ [ [ 26.10340492763229, 44.453092281829527 ], [ 26.1039414, 44.4513531 ], [ 26.1044413, 44.4496987 ], [ 26.1050813, 44.4486948 ], [ 26.105327, 44.44836 ], [ 26.1057513, 44.4480252 ], [ 26.105754768018315, 44.448010834626089 ] ] ] } },
{ "type": "Feature", "properties": { "Pantelimon_Univ": null, "fill": "#ffe100", "clasa_risc": 3, "lungime": null }, "geometry": { "type": "MultiLineString", "coordinates": [ [ [ 26.105754768018315, 44.448010834626089 ], [ 26.1060536, 44.446773 ], [ 26.106072938850165, 44.446309821530356 ] ] ] } },
{ "type": "Feature", "properties": { "Pantelimon_Univ": null, "fill": "#ffe100", "clasa_risc": 3, "lungime": null }, "geometry": { "type": "MultiLineString", "coordinates": [ [ [ 26.106072938850165, 44.446309821530356 ], [ 26.1060759, 44.4462389 ], [ 26.106542002226949, 44.445225485795184 ] ] ] } },
{ "type": "Feature", "properties": { "Pantelimon_Univ": null, "fill": "#ffe100", "clasa_risc": 3, "lungime": null }, "geometry": { "type": "MultiLineString", "coordinates": [ [ [ 26.106542002226949, 44.445225485795184 ], [ 26.106542002226949, 44.445225485795184 ] ] ] } },
{ "type": "Feature", "properties": { "Pantelimon_Univ": null, "fill": "#ffe100", "clasa_risc": 3, "lungime": null }, "geometry": { "type": "MultiLineString", "coordinates": [ [ [ 26.1037483, 44.4442812 ], [ 26.1037919, 44.444817 ], [ 26.1042609, 44.4446496 ], [ 26.106542002226949, 44.445225485795177 ] ] ] } },
{ "type": "Feature", "properties": { "Pantelimon_Univ": null, "fill": "#ffe100", "clasa_risc": 3, "lungime": null }, "geometry": { "type": "MultiLineString", "coordinates": [ [ [ 26.106542002226949, 44.445225485795177 ], [ 26.1081134, 44.4456222 ], [ 26.1092747, 44.4455744 ], [ 26.109580911252955, 44.445881333828019 ] ] ] } },
{ "type": "Feature", "properties": { "Pantelimon_Univ": null, "fill": "#ffe100", "clasa_risc": 4, "lungime": null }, "geometry": { "type": "MultiLineString", "coordinates": [ [ [ 26.109580911252955, 44.445881333828019 ], [ 26.1096561, 44.4459567 ], [ 26.110291674155544, 44.446958151309936 ] ] ] } },
{ "type": "Feature", "properties": { "Pantelimon_Univ": null, "fill": "#ffe100", "clasa_risc": 4, "lungime": null }, "geometry": { "type": "MultiLineString", "coordinates": [ [ [ 26.110291674155544, 44.446958151309936 ], [ 26.1103037, 44.4469771 ], [ 26.1104936, 44.4485156 ], [ 26.1092094, 44.4497991 ], [ 26.1091871, 44.4528034 ], [ 26.109380812638882, 44.452950601456301 ] ] ] } },
{ "type": "Feature", "properties": { "Pantelimon_Univ": null, "fill": "#ffe100", "clasa_risc": 6, "lungime": null }, "geometry": { "type": "MultiLineString", "coordinates": [ [ [ 26.109380812638882, 44.452950601456301 ], [ 26.1095332, 44.4530664 ] ] ] } },
{ "type": "Feature", "properties": { "Pantelimon_Univ": null, "fill": "#ffe100", "clasa_risc": 3, "lungime": null }, "geometry": { "type": "MultiLineString", "coordinates": [ [ [ 26.1057264, 44.4568166 ], [ 26.1051573, 44.4569153 ], [ 26.105658, 44.458413 ], [ 26.1046508, 44.4586167 ], [ 26.1037779, 44.4595871 ], [ 26.1023682, 44.4599344 ], [ 26.100891, 44.4600542 ] ] ] } },
{ "type": "Feature", "properties": { "Pantelimon_Univ": null, "fill": "#ffe100", "clasa_risc": 5, "lungime": null }, "geometry": { "type": "MultiLineString", "coordinates": [ [ [ 26.146031799146204, 44.45562462932282 ], [ 26.1455152, 44.4538654 ], [ 26.1454558331607, 44.453883561977094 ] ] ] } },
{ "type": "Feature", "properties": { "Pantelimon_Univ": null, "fill": "#ffe100", "clasa_risc": 6, "lungime": null }, "geometry": { "type": "MultiLineString", "coordinates": [ [ [ 26.1454558331607, 44.453883561977094 ], [ 26.1428077, 44.4546937 ], [ 26.1420709, 44.4537077 ], [ 26.1449074, 44.4522878 ], [ 26.146565, 44.4511308 ], [ 26.1486278, 44.4494347 ], [ 26.1489041, 44.4491585 ], [ 26.1477808, 44.4486727 ], [ 26.1470257, 44.4487253 ], [ 26.145718, 44.4481993 ], [ 26.144583529201039, 44.447190102371458 ] ] ] } },
{ "type": "Feature", "properties": { "Pantelimon_Univ": null, "fill": "#ffe100", "clasa_risc": 5, "lungime": null }, "geometry": { "type": "MultiLineString", "coordinates": [ [ [ 26.144583529201039, 44.447190102371458 ], [ 26.1445208, 44.4471343 ], [ 26.1429184, 44.4460955 ], [ 26.1416659, 44.4453329 ], [ 26.141520402117489, 44.444514634922797 ] ] ] } },
{ "type": "Feature", "properties": { "Pantelimon_Univ": null, "fill": "#ffe100", "clasa_risc": 6, "lungime": null }, "geometry": { "type": "MultiLineString", "coordinates": [ [ [ 26.1497808, 44.4436217 ], [ 26.149783941654078, 44.443631306506099 ] ] ] } },
{ "type": "Feature", "properties": { "Pantelimon_Univ": null, "fill": "#ffe100", "clasa_risc": 4, "lungime": null }, "geometry": { "type": "MultiLineString", "coordinates": [ [ [ 26.149783941654078, 44.443631306506099 ], [ 26.1496042, 44.4444782 ], [ 26.1489964, 44.4453329 ], [ 26.1490701, 44.4454775 ], [ 26.144583529201043, 44.447190102371458 ] ] ] } },
{ "type": "Feature", "properties": { "Pantelimon_Univ": null, "fill": "#ffe100", "clasa_risc": 5, "lungime": null }, "geometry": { "type": "MultiLineString", "coordinates": [ [ [ 26.1456493, 44.4483004 ], [ 26.1386444, 44.4509885 ], [ 26.1340206, 44.4526685 ], [ 26.1303382, 44.4534788 ], [ 26.1284712, 44.4525456 ], [ 26.127652, 44.4513705 ], [ 26.1271207, 44.4511769 ], [ 26.1279798, 44.4500634 ], [ 26.1279459, 44.4499343 ], [ 26.1260582, 44.4492161 ], [ 26.1258661, 44.4490063 ], [ 26.125573382106658, 44.448912626702217 ] ] ] } },
{ "type": "Feature", "properties": { "Pantelimon_Univ": null, "fill": "#ffe100", "clasa_risc": null, "lungime": null }, "geometry": { "type": "MultiLineString", "coordinates": [ [ [ 26.125573382106658, 44.448912626702217 ], [ 26.125573382106658, 44.448912626702217 ] ] ] } },
{ "type": "Feature", "properties": { "Pantelimon_Univ": null, "fill": "#ffe100", "clasa_risc": 2, "lungime": null }, "geometry": { "type": "MultiLineString", "coordinates": [ [ [ 26.1317817, 44.4531653 ], [ 26.1300235, 44.4547525 ], [ 26.128604416340714, 44.455314407251848 ] ] ] } },
{ "type": "Feature", "properties": { "Pantelimon_Univ": null, "fill": "#ffe100", "clasa_risc": 3, "lungime": null }, "geometry": { "type": "MultiLineString", "coordinates": [ [ [ 26.128555911800422, 44.455251894570736 ], [ 26.1281835, 44.4553582 ], [ 26.1280294, 44.4552428 ], [ 26.1268897, 44.455666 ], [ 26.1277137, 44.4567654 ], [ 26.1235259, 44.4584906 ], [ 26.122209, 44.4590623 ], [ 26.1214004, 44.4597109 ], [ 26.1200132, 44.4621863 ] ] ] } },
{ "type": "Feature", "properties": { "Pantelimon_Univ": null, "fill": "#ffe100", "clasa_risc": 5, "lungime": null }, "geometry": { "type": "MultiLineString", "coordinates": [ [ [ 26.1233654, 44.4585599 ], [ 26.1212414, 44.455831 ], [ 26.117928, 44.455928 ], [ 26.1174522, 44.4559523 ], [ 26.1173503, 44.4566072 ], [ 26.1165448, 44.4570246 ], [ 26.1143467, 44.458169 ], [ 26.1143337, 44.458469 ], [ 26.11417762708081, 44.460021462406786 ] ] ] } },
{ "type": "Feature", "properties": { "Pantelimon_Univ": null, "fill": "#4effcd", "clasa_risc": 6, "lungime": null }, "geometry": { "type": "MultiLineString", "coordinates": [ [ [ 26.111051551570469, 44.445588082898574 ], [ 26.111362998377956, 44.446844842632146 ] ] ] } },
{ "type": "Feature", "properties": { "Pantelimon_Univ": null, "fill": "#4effcd", "clasa_risc": 6, "lungime": null }, "geometry": { "type": "MultiLineString", "coordinates": [ [ [ 26.111362998377956, 44.446844842632146 ], [ 26.1117306, 44.4483282 ], [ 26.1119201, 44.4489877 ], [ 26.1116585, 44.4511659 ], [ 26.111556210757705, 44.452861444944944 ] ] ] } },
{ "type": "Feature", "properties": { "Pantelimon_Univ": null, "fill": "#4effcd", "clasa_risc": 4, "lungime": null }, "geometry": { "type": "MultiLineString", "coordinates": [ [ [ 26.111556210757705, 44.452861444944944 ], [ 26.1115519, 44.4529329 ], [ 26.1115637, 44.4538375 ], [ 26.1112203, 44.4538544 ], [ 26.1112558, 44.4552578 ], [ 26.1118006, 44.4554776 ], [ 26.1123573, 44.4557143 ], [ 26.1132605, 44.4560601 ], [ 26.1137935, 44.4563898 ], [ 26.1139063, 44.4575886 ], [ 26.1139075, 44.4583274 ], [ 26.1143221, 44.4585387 ] ] ] } },
{ "type": "Feature", "properties": { "Pantelimon_Univ": null, "fill": "#4effcd", "clasa_risc": 3, "lungime": null }, "geometry": { "type": "MultiLineString", "coordinates": [ [ [ 26.11993620343587, 44.443306866259277 ], [ 26.11997342393401, 44.443354000848508 ], [ 26.11997342393401, 44.443354000848508 ], [ 26.1200858, 44.4433493 ], [ 26.1225326, 44.4432919 ], [ 26.12454, 44.4435613 ], [ 26.1259411, 44.4439171 ], [ 26.1262084, 44.4433141 ], [ 26.1266123, 44.4426853 ] ] ] } },
{ "type": "Feature", "properties": { "Pantelimon_Univ": null, "fill": "#0800ff", "clasa_risc": 3, "lungime": null }, "geometry": { "type": "MultiLineString", "coordinates": [ [ [ 26.117187961541191, 44.441332285641089 ], [ 26.1202159, 44.4405069 ], [ 26.1206773, 44.4406782 ], [ 26.1210201, 44.4402898 ] ] ] } },
{ "type": "Feature", "properties": { "Pantelimon_Univ": null, "fill": "#4effcd", "clasa_risc": 6, "lungime": null }, "geometry": { "type": "MultiLineString", "coordinates": [ [ [ 26.1375302, 44.4514015 ], [ 26.1393924, 44.4520899 ], [ 26.1400242, 44.4525528 ], [ 26.1408222, 44.4529325 ], [ 26.1416535, 44.4532411 ], [ 26.1420858, 44.4536802 ] ] ] } },
{ "type": "Feature", "properties": { "Pantelimon_Univ": null, "fill": "#4effcd", "clasa_risc": 5, "lungime": null }, "geometry": { "type": "MultiLineString", "coordinates": [ [ [ 26.1428077, 44.4546937 ], [ 26.143771057709017, 44.455984294204953 ] ] ] } },
{ "type": "Feature", "properties": { "Pantelimon_Univ": null, "fill": "#4effcd", "clasa_risc": 5, "lungime": null }, "geometry": { "type": "MultiLineString", "coordinates": [ [ [ 26.1480617, 44.4499451 ], [ 26.1491538, 44.4506448 ], [ 26.1496303, 44.4508502 ], [ 26.150127628957616, 44.451036045425845 ] ] ] } },
{ "type": "Feature", "properties": { "Pantelimon_Univ": null, "fill": "#4effcd", "clasa_risc": 5, "lungime": null }, "geometry": { "type": "MultiLineString", "coordinates": [ [ [ 26.150127628957616, 44.451036045425845 ], [ 26.1522735, 44.4516119 ] ] ] } },
{ "type": "Feature", "properties": { "Pantelimon_Univ": null, "fill": "#4effcd", "clasa_risc": 2, "lungime": null }, "geometry": { "type": "MultiLineString", "coordinates": [ [ [ 26.1454558331607, 44.453883561977094 ], [ 26.1470751, 44.4531173 ], [ 26.1480866, 44.4525177 ], [ 26.1489695, 44.4518507 ], [ 26.150127628957616, 44.451036045425845 ] ] ] } },
{ "type": "Feature", "properties": { "Pantelimon_Univ": null, "fill": "#0800ff", "clasa_risc": 6, "lungime": null }, "geometry": { "type": "MultiLineString", "coordinates": [ [ [ 26.124225870669644, 44.450103568315569 ], [ 26.124225870669648, 44.450103568315569 ] ] ] } },
{ "type": "Feature", "properties": { "Pantelimon_Univ": null, "fill": "#0800ff", "clasa_risc": 6, "lungime": null }, "geometry": { "type": "MultiLineString", "coordinates": [ [ [ 26.124225870669648, 44.450103568315569 ], [ 26.1252223, 44.4506815 ], [ 26.1275958, 44.4538809 ], [ 26.1300439, 44.4573697 ], [ 26.1324941, 44.4608204 ], [ 26.1326966, 44.4618682 ], [ 26.132895203046843, 44.462217090719427 ] ] ] } },
{ "type": "Feature", "properties": { "Pantelimon_Univ": null, "fill": "#0800ff", "clasa_risc": 6, "lungime": null }, "geometry": { "type": "MultiLineString", "coordinates": [ [ [ 26.132895203046843, 44.462217090719427 ], [ 26.1333547, 44.4630243 ], [ 26.134849, 44.4646627 ], [ 26.136672750471519, 44.465726496727051 ] ] ] } },
{ "type": "Feature", "properties": { "Pantelimon_Univ": null, "fill": "#0800ff", "clasa_risc": 5, "lungime": null }, "geometry": { "type": "MultiLineString", "coordinates": [ [ [ 26.136672750471519, 44.465726496727051 ], [ 26.1385356, 44.4668131 ], [ 26.1429527, 44.4688416 ] ] ] } },
{ "type": "Feature", "properties": { "Pantelimon_Univ": null, "fill": "#ffe100", "clasa_risc": 6, "lungime": null }, "geometry": { "type": "MultiLineString", "coordinates": [ [ [ 26.1429527, 44.4688416 ], [ 26.1429527, 44.4688416 ], [ 26.1476525, 44.4703429 ], [ 26.1501476, 44.4711775 ], [ 26.1540462, 44.4732918 ], [ 26.1635985, 44.4781009 ], [ 26.164205106785861, 44.478412285513237 ] ] ] } },
{ "type": "Feature", "properties": { "Pantelimon_Univ": null, "fill": "#ffe100", "clasa_risc": 6, "lungime": null }, "geometry": { "type": "MultiLineString", "coordinates": [ [ [ 26.164205106785861, 44.478412285513237 ], [ 26.16567068952293, 44.479164603560797 ] ] ] } },
{ "type": "Feature", "properties": { "Pantelimon_Univ": null, "fill": "#ffe100", "clasa_risc": 6, "lungime": null }, "geometry": { "type": "MultiLineString", "coordinates": [ [ [ 26.16567068952293, 44.479164603560797 ], [ 26.1690175, 44.4808826 ] ] ] } }
]
}
